GLOBALSTAR M024         
1 25883U 99043A   24325.38087987 -.00000058  00000+0  23308-3 0  9999
2 25883  51.9970 131.7596 0002655 105.5900 263.4224 11.10159873 91671
GLOBALSTAR M027         
1 25884U 99043B   24325.59324091 -.00000088  00000+0 -93693-3 0  9991
2 25884  52.0190 203.3552 0021927  16.8292 343.3224 11.04370800118190
GLOBALSTAR M054         
1 25885U 99043C   24325.58876925 -.00000066  00000+0  13665-3 0  9995
2 25885  52.0169   5.6701 0006278 180.0799 349.7950 11.39205847 95279
GLOBALSTAR M053         
1 25886U 99043D   24325.25083105 -.00000072  00000+0 -84001-4 0  9991
2 25886  51.9991 301.9827 0003642  80.4349  55.3380 11.27660214 95871
GLOBALSTAR M058         
1 25907U 99049A   24325.38478630 -.00000032  00000+0  71019-3 0  9995
2 25907  51.9948 306.7291 0001469 234.2215 125.8484 11.93192944516612
GLOBALSTAR M050         
1 25908U 99049B   24325.37700170 -.00000064  00000+0  26765-3 0  9995
2 25908  52.0008 330.0259 0009155 337.1441 169.0829 12.07444720122962
